[
    {
        "Altitude(m)": 611965.1709160199,
        "Argument of Periapsis(deg)": 0.0,
        "Eccentricity": 0.0,
        "Inclination(deg)": 60.0,
        "Latitude(deg)": 59.140117793120815,
        "Longitude(deg)": -111.03011511370134,
        "Mean Anomaly(deg)": 81.8182,
        "RAAN(deg)": 275.0,
        "Satellite Name": "Test1 1215",
        "Satellite Number": 1215,
        "Semi-Major Axis(m)": 6980739.136638005,
        "Time(s)": 0
    },
    {
        "Altitude(m)": 611995.7962014085,
        "Argument of Periapsis(deg)": 0.00010418945913296404,
        "Eccentricity": 0.0,
        "Inclination(deg)": 60.0,
        "Latitude(deg)": 59.28321699429331,
        "Longitude(deg)": -109.89675401882428,
        "Mean Anomaly(deg)": 82.43830614546187,
        "RAAN(deg)": 274.9995799508602,
        "Satellite Name": "Test1 1215",
        "Satellite Number": 1215,
        "Semi-Major Axis(m)": 6980739.136638005,
        "Time(s)": 10
    }
]